BREEZE-M DEB            
1 38922U 12044BF  17345.91285896  .00006639  25054-5  17444-3 0  9991
2 38922  50.0735 195.9703 2185570 308.9809  33.5375 11.08726626201878
